ORBCOMM FM24            
1 25478U 98053D   25343.47936968  .00001979  00000+0  68584-3 0  9999
2 25478  45.0054 157.6535 0002081  50.5103 309.5929 14.38639003422689
ORBCOMM FM25            
1 25479U 98053E   25342.89878270  .00001613  00000+0  56798-3 0  9995
2 25479  45.0052 158.7067 0004492  50.8930 309.2318 14.38604832422893
ORBCOMM FM26            
1 25480U 98053F   25343.51529767  .00001671  00000+0  59867-3 0  9995
2 25480  45.0045 153.5478 0006391  68.3724 291.7805 14.37584096422873
ORBCOMM FM27            
1 25481U 98053G   25343.22971722  .00001997  00000+0  69164-3 0  9998
2 25481  45.0029 157.2714 0000993  91.9939 268.1024 14.38640679422874
ORBCOMM FM28            
1 25482U 98053H   25342.69204554  .00002376  00000+0  81189-3 0  9994
2 25482  45.0044  97.1043 0004228 115.9043 244.2242 14.38772871423482
ORBCOMM FM30            
1 25980U 99065A   25343.41571969  .00001926  00000+0  68067-3 0  9999
2 25980  45.0324 340.0466 0005831 188.0241 172.0515 14.37753391359661
ORBCOMM FM31            
1 25981U 99065B   25343.39716829  .00001893  00000+0  67095-3 0  9996
2 25981  45.0237 333.5885 0004416 224.0317 136.0180 14.37680292359218
ORBCOMM FM32            
1 25982U 99065C   25343.28124057  .00002049  00000+0  73591-3 0  9993
2 25982  45.0159 351.8864 0006667 208.1492 151.8996 14.36737240359775
