<?xml version="1.0" encoding="UTF-8"?>
<ndm xmlns:xsi="http://www.w3.org/2001/XMLSchema-instance" xsi:noNamespaceSchemaLocation="https://sanaregistry.org/r/ndmxml_unqualified/ndmxml-2.0.0-master-2.0.xsd">
<omm id="CCSDS_OMM_VERS" version="2.0">
<header><CREATION_DATE/><ORIGINATOR/></header><body><segment><metadata><OBJECT_NAME>ORBCOMM FM24</OBJECT_NAME><OBJECT_ID>1998-053D</OBJECT_ID><CENTER_NAME>EARTH</CENTER_NAME><REF_FRAME>TEME</REF_FRAME><TIME_SYSTEM>UTC</TIME_SYSTEM><MEAN_ELEMENT_THEORY>SGP4</MEAN_ELEMENT_THEORY></metadata><data><meanElements><EPOCH>2025-12-09T11:30:17.540352</EPOCH><MEAN_MOTION>14.38639003</MEAN_MOTION><ECCENTRICITY>.0002081</ECCENTRICITY><INCLINATION>45.0054</INCLINATION><RA_OF_ASC_NODE>157.6535</RA_OF_ASC_NODE><ARG_OF_PERICENTER>50.5103</ARG_OF_PERICENTER><MEAN_ANOMALY>309.5929</MEAN_ANOMALY></meanElements><tleParameters><EPHEMERIS_TYPE>0</EPHEMERIS_TYPE><CLASSIFICATION_TYPE>U</CLASSIFICATION_TYPE><NORAD_CAT_ID>25478</NORAD_CAT_ID><ELEMENT_SET_NO>999</ELEMENT_SET_NO><REV_AT_EPOCH>42268</REV_AT_EPOCH><BSTAR>.68584E-3</BSTAR><MEAN_MOTION_DOT>.1979E-4</MEAN_MOTION_DOT><MEAN_MOTION_DDOT>0</MEAN_MOTION_DDOT></tleParameters></data></segment></body></omm>
<omm id="CCSDS_OMM_VERS" version="2.0">
<header><CREATION_DATE/><ORIGINATOR/></header><body><segment><metadata><OBJECT_NAME>ORBCOMM FM25</OBJECT_NAME><OBJECT_ID>1998-053E</OBJECT_ID><CENTER_NAME>EARTH</CENTER_NAME><REF_FRAME>TEME</REF_FRAME><TIME_SYSTEM>UTC</TIME_SYSTEM><MEAN_ELEMENT_THEORY>SGP4</MEAN_ELEMENT_THEORY></metadata><data><meanElements><EPOCH>2025-12-08T21:34:14.825280</EPOCH><MEAN_MOTION>14.38604832</MEAN_MOTION><ECCENTRICITY>.0004492</ECCENTRICITY><INCLINATION>45.0052</INCLINATION><RA_OF_ASC_NODE>158.7067</RA_OF_ASC_NODE><ARG_OF_PERICENTER>50.8930</ARG_OF_PERICENTER><MEAN_ANOMALY>309.2318</MEAN_ANOMALY></meanElements><tleParameters><EPHEMERIS_TYPE>0</EPHEMERIS_TYPE><CLASSIFICATION_TYPE>U</CLASSIFICATION_TYPE><NORAD_CAT_ID>25479</NORAD_CAT_ID><ELEMENT_SET_NO>999</ELEMENT_SET_NO><REV_AT_EPOCH>42289</REV_AT_EPOCH><BSTAR>.56798E-3</BSTAR><MEAN_MOTION_DOT>.1613E-4</MEAN_MOTION_DOT><MEAN_MOTION_DDOT>0</MEAN_MOTION_DDOT></tleParameters></data></segment></body></omm>
<omm id="CCSDS_OMM_VERS" version="2.0">
<header><CREATION_DATE/><ORIGINATOR/></header><body><segment><metadata><OBJECT_NAME>ORBCOMM FM26</OBJECT_NAME><OBJECT_ID>1998-053F</OBJECT_ID><CENTER_NAME>EARTH</CENTER_NAME><REF_FRAME>TEME</REF_FRAME><TIME_SYSTEM>UTC</TIME_SYSTEM><MEAN_ELEMENT_THEORY>SGP4</MEAN_ELEMENT_THEORY></metadata><data><meanElements><EPOCH>2025-12-09T12:22:01.718688</EPOCH><MEAN_MOTION>14.37584096</MEAN_MOTION><ECCENTRICITY>.0006391</ECCENTRICITY><INCLINATION>45.0045</INCLINATION><RA_OF_ASC_NODE>153.5478</RA_OF_ASC_NODE><ARG_OF_PERICENTER>68.3724</ARG_OF_PERICENTER><MEAN_ANOMALY>291.7805</MEAN_ANOMALY></meanElements><tleParameters><EPHEMERIS_TYPE>0</EPHEMERIS_TYPE><CLASSIFICATION_TYPE>U</CLASSIFICATION_TYPE><NORAD_CAT_ID>25480</NORAD_CAT_ID><ELEMENT_SET_NO>999</ELEMENT_SET_NO><REV_AT_EPOCH>42287</REV_AT_EPOCH><BSTAR>.59867E-3</BSTAR><MEAN_MOTION_DOT>.1671E-4</MEAN_MOTION_DOT><MEAN_MOTION_DDOT>0</MEAN_MOTION_DDOT></tleParameters></data></segment></body></omm>
<omm id="CCSDS_OMM_VERS" version="2.0">
<header><CREATION_DATE/><ORIGINATOR/></header><body><segment><metadata><OBJECT_NAME>ORBCOMM FM27</OBJECT_NAME><OBJECT_ID>1998-053G</OBJECT_ID><CENTER_NAME>EARTH</CENTER_NAME><REF_FRAME>TEME</REF_FRAME><TIME_SYSTEM>UTC</TIME_SYSTEM><MEAN_ELEMENT_THEORY>SGP4</MEAN_ELEMENT_THEORY></metadata><data><meanElements><EPOCH>2025-12-09T05:30:47.567808</EPOCH><MEAN_MOTION>14.38640679</MEAN_MOTION><ECCENTRICITY>.0000993</ECCENTRICITY><INCLINATION>45.0029</INCLINATION><RA_OF_ASC_NODE>157.2714</RA_OF_ASC_NODE><ARG_OF_PERICENTER>91.9939</ARG_OF_PERICENTER><MEAN_ANOMALY>268.1024</MEAN_ANOMALY></meanElements><tleParameters><EPHEMERIS_TYPE>0</EPHEMERIS_TYPE><CLASSIFICATION_TYPE>U</CLASSIFICATION_TYPE><NORAD_CAT_ID>25481</NORAD_CAT_ID><ELEMENT_SET_NO>999</ELEMENT_SET_NO><REV_AT_EPOCH>42287</REV_AT_EPOCH><BSTAR>.69164E-3</BSTAR><MEAN_MOTION_DOT>.1997E-4</MEAN_MOTION_DOT><MEAN_MOTION_DDOT>0</MEAN_MOTION_DDOT></tleParameters></data></segment></body></omm>
<omm id="CCSDS_OMM_VERS" version="2.0">
<header><CREATION_DATE/><ORIGINATOR/></header><body><segment><metadata><OBJECT_NAME>ORBCOMM FM28</OBJECT_NAME><OBJECT_ID>1998-053H</OBJECT_ID><CENTER_NAME>EARTH</CENTER_NAME><REF_FRAME>TEME</REF_FRAME><TIME_SYSTEM>UTC</TIME_SYSTEM><MEAN_ELEMENT_THEORY>SGP4</MEAN_ELEMENT_THEORY></metadata><data><meanElements><EPOCH>2025-12-08T16:36:32.734656</EPOCH><MEAN_MOTION>14.38772871</MEAN_MOTION><ECCENTRICITY>.00042283</ECCENTRICITY><INCLINATION>45.0044</INCLINATION><RA_OF_ASC_NODE>97.1043</RA_OF_ASC_NODE><ARG_OF_PERICENTER>115.9043</ARG_OF_PERICENTER><MEAN_ANOMALY>244.2242</MEAN_ANOMALY></meanElements><tleParameters><EPHEMERIS_TYPE>0</EPHEMERIS_TYPE><CLASSIFICATION_TYPE>U</CLASSIFICATION_TYPE><NORAD_CAT_ID>25482</NORAD_CAT_ID><ELEMENT_SET_NO>999</ELEMENT_SET_NO><REV_AT_EPOCH>42348</REV_AT_EPOCH><BSTAR>.81189394E-3</BSTAR><MEAN_MOTION_DOT>.2376E-4</MEAN_MOTION_DOT><MEAN_MOTION_DDOT>0</MEAN_MOTION_DDOT></tleParameters></data></segment></body></omm>
<omm id="CCSDS_OMM_VERS" version="2.0">
<header><CREATION_DATE/><ORIGINATOR/></header><body><segment><metadata><OBJECT_NAME>ORBCOMM FM30</OBJECT_NAME><OBJECT_ID>1999-065A</OBJECT_ID><CENTER_NAME>EARTH</CENTER_NAME><REF_FRAME>TEME</REF_FRAME><TIME_SYSTEM>UTC</TIME_SYSTEM><MEAN_ELEMENT_THEORY>SGP4</MEAN_ELEMENT_THEORY></metadata><data><meanElements><EPOCH>2025-12-09T09:58:38.181216</EPOCH><MEAN_MOTION>14.37753391</MEAN_MOTION><ECCENTRICITY>.0005831</ECCENTRICITY><INCLINATION>45.0324</INCLINATION><RA_OF_ASC_NODE>340.0466</RA_OF_ASC_NODE><ARG_OF_PERICENTER>188.0241</ARG_OF_PERICENTER><MEAN_ANOMALY>172.0515</MEAN_ANOMALY></meanElements><tleParameters><EPHEMERIS_TYPE>0</EPHEMERIS_TYPE><CLASSIFICATION_TYPE>U</CLASSIFICATION_TYPE><NORAD_CAT_ID>25980</NORAD_CAT_ID><ELEMENT_SET_NO>999</ELEMENT_SET_NO><REV_AT_EPOCH>35966</REV_AT_EPOCH><BSTAR>.68067E-3</BSTAR><MEAN_MOTION_DOT>.1926E-4</MEAN_MOTION_DOT><MEAN_MOTION_DDOT>0</MEAN_MOTION_DDOT></tleParameters></data></segment></body></omm>
<omm id="CCSDS_OMM_VERS" version="2.0">
<header><CREATION_DATE/><ORIGINATOR/></header><body><segment><metadata><OBJECT_NAME>ORBCOMM FM31</OBJECT_NAME><OBJECT_ID>1999-065B</OBJECT_ID><CENTER_NAME>EARTH</CENTER_NAME><REF_FRAME>TEME</REF_FRAME><TIME_SYSTEM>UTC</TIME_SYSTEM><MEAN_ELEMENT_THEORY>SGP4</MEAN_ELEMENT_THEORY></metadata><data><meanElements><EPOCH>2025-12-09T09:31:55.340256</EPOCH><MEAN_MOTION>14.37680292</MEAN_MOTION><ECCENTRICITY>.0004416</ECCENTRICITY><INCLINATION>45.0237</INCLINATION><RA_OF_ASC_NODE>333.5885</RA_OF_ASC_NODE><ARG_OF_PERICENTER>224.0317</ARG_OF_PERICENTER><MEAN_ANOMALY>136.0180</MEAN_ANOMALY></meanElements><tleParameters><EPHEMERIS_TYPE>0</EPHEMERIS_TYPE><CLASSIFICATION_TYPE>U</CLASSIFICATION_TYPE><NORAD_CAT_ID>25981</NORAD_CAT_ID><ELEMENT_SET_NO>999</ELEMENT_SET_NO><REV_AT_EPOCH>35921</REV_AT_EPOCH><BSTAR>.67095E-3</BSTAR><MEAN_MOTION_DOT>.1893E-4</MEAN_MOTION_DOT><MEAN_MOTION_DDOT>0</MEAN_MOTION_DDOT></tleParameters></data></segment></body></omm>
<omm id="CCSDS_OMM_VERS" version="2.0">
<header><CREATION_DATE/><ORIGINATOR/></header><body><segment><metadata><OBJECT_NAME>ORBCOMM FM32</OBJECT_NAME><OBJECT_ID>1999-065C</OBJECT_ID><CENTER_NAME>EARTH</CENTER_NAME><REF_FRAME>TEME</REF_FRAME><TIME_SYSTEM>UTC</TIME_SYSTEM><MEAN_ELEMENT_THEORY>SGP4</MEAN_ELEMENT_THEORY></metadata><data><meanElements><EPOCH>2025-12-09T06:44:59.185248</EPOCH><MEAN_MOTION>14.36737240</MEAN_MOTION><ECCENTRICITY>.0006667</ECCENTRICITY><INCLINATION>45.0159</INCLINATION><RA_OF_ASC_NODE>351.8864</RA_OF_ASC_NODE><ARG_OF_PERICENTER>208.1492</ARG_OF_PERICENTER><MEAN_ANOMALY>151.8996</MEAN_ANOMALY></meanElements><tleParameters><EPHEMERIS_TYPE>0</EPHEMERIS_TYPE><CLASSIFICATION_TYPE>U</CLASSIFICATION_TYPE><NORAD_CAT_ID>25982</NORAD_CAT_ID><ELEMENT_SET_NO>999</ELEMENT_SET_NO><REV_AT_EPOCH>35977</REV_AT_EPOCH><BSTAR>.73591E-3</BSTAR><MEAN_MOTION_DOT>.2049E-4</MEAN_MOTION_DOT><MEAN_MOTION_DDOT>0</MEAN_MOTION_DDOT></tleParameters></data></segment></body></omm>

</ndm>
